[{"OBJECT_NAME":"STARLINK-34555","OBJECT_ID":"2025-139B","EPOCH":"2026-03-09T10:29:16.789632","MEAN_MOTION":15.30202868,"ECCENTRICITY":0.00011904,"INCLINATION":53.158,"RA_OF_ASC_NODE":128.3422,"ARG_OF_PERICENTER":84.8527,"MEAN_ANOMALY":275.261,"EPHEMERIS_TYPE":0,"CLASSIFICATION_TYPE":"U","NORAD_CAT_ID":64665,"ELEMENT_SET_NO":999,"REV_AT_EPOCH":4014,"BSTAR":0.00049860117,"MEAN_MOTION_DOT":0.00014438,"MEAN_MOTION_DDOT":0},{"OBJECT_NAME":"CP8 (IPEX)","OBJECT_ID":"2013-072K","EPOCH":"2026-03-09T13:09:38.394720","MEAN_MOTION":15.06461805,"ECCENTRICITY":0.0159394,"INCLINATION":120.4656,"RA_OF_ASC_NODE":280.3913,"ARG_OF_PERICENTER":252.2911,"MEAN_ANOMALY":106.0698,"EPHEMERIS_TYPE":0,"CLASSIFICATION_TYPE":"U","NORAD_CAT_ID":39471,"ELEMENT_SET_NO":999,"REV_AT_EPOCH":10021,"BSTAR":0.00057825,"MEAN_MOTION_DOT":0.0001114,"MEAN_MOTION_DDOT":0}]
